[
  {
    "example_postcode" : "LL625HA",
    "id" : "W09000001",
    "region_id" : "W10000001",
    "name_en" : "Ynys Môn",
    "name_cy" : "Ynys Môn"
  },
  {
    "example_postcode" : "LL564RJ",
    "id" : "W09000002",
    "region_id" : "W10000001",
    "name_en" : "Arfon",
    "name_cy" : "Arfon"
  },
  {
    "example_postcode" : "LL309GG",
    "id" : "W09000003",
    "region_id" : "W10000001",
    "name_en" : "Aberconwy",
    "name_cy" : "Aberconwy"
  },
  {
    "example_postcode" : "LL151ZG",
    "id" : "W09000004",
    "region_id" : "W10000001",
    "name_en" : "Clwyd West",
    "name_cy" : "Gorllewin Clwyd"
  },
  {
    "example_postcode" : "LL164NY",
    "id" : "W09000005",
    "region_id" : "W10000001",
    "name_en" : "Vale of Clwyd",
    "name_cy" : "Dyffryn Clwyd"
  },
  {
    "example_postcode" : "CH71ZJ",
    "id" : "W09000006",
    "region_id" : "W10000001",
    "name_en" : "Delyn",
    "name_cy" : "Delyn"
  },
  {
    "example_postcode" : "CH40HU",
    "id" : "W09000007",
    "region_id" : "W10000001",
    "name_en" : "Alyn and Deeside",
    "name_cy" : "Alun a Glannau Dyfrdwy"
  },
  {
    "example_postcode" : "LL112AN",
    "id" : "W09000008",
    "region_id" : "W10000001",
    "name_en" : "Wrexham",
    "name_cy" : "Wrecsam"
  },
  {
    "example_postcode" : "LL219NU",
    "id" : "W09000009",
    "region_id" : "W10000001",
    "name_en" : "Clwyd South",
    "name_cy" : "De Clwyd"
  },
  {
    "example_postcode" : "LL421BU",
    "id" : "W09000010",
    "region_id" : "W10000006",
    "name_en" : "Dwyfor Meirionnydd",
    "name_cy" : "Dwyfor Meirionnydd"
  },
  {
    "example_postcode" : "SY225LU",
    "id" : "W09000011",
    "region_id" : "W10000006",
    "name_en" : "Montgomeryshire",
    "name_cy" : "Sir Drefaldwyn"
  },
  {
    "example_postcode" : "SA445SU",
    "id" : "W09000012",
    "region_id" : "W10000006",
    "name_en" : "Ceredigion",
    "name_cy" : "Ceredigion"
  },
  {
    "example_postcode" : "SA659AQ",
    "id" : "W09000014",
    "region_id" : "W10000006",
    "name_en" : "Preseli Pembrokeshire",
    "name_cy" : "Preseli Sir Benfro"
  },
  {
    "example_postcode" : "SA327LY",
    "id" : "W09000015",
    "region_id" : "W10000006",
    "name_en" : "Carmarthen East and Dinefwr",
    "name_cy" : "Dwyrain Caerfyrddin a Dinefwr"
  },
  {
    "example_postcode" : "SA313NJ",
    "id" : "W09000016",
    "region_id" : "W10000006",
    "name_en" : "Carmarthen West and South Pembrokeshire",
    "name_cy" : "Gorllewin Caerfyrddin a De Sir Benfro"
  },
  {
    "example_postcode" : "SA41UZ",
    "id" : "W09000017",
    "region_id" : "W10000006",
    "name_en" : "Llanelli",
    "name_cy" : "Llanelli"
  },
  {
    "example_postcode" : "SA45BD",
    "id" : "W09000018",
    "region_id" : "W10000009",
    "name_en" : "Gower",
    "name_cy" : "Gwyr"
  },
  {
    "example_postcode" : "SA16UD",
    "id" : "W09000019",
    "region_id" : "W10000009",
    "name_en" : "Swansea West",
    "name_cy" : "Gorllewin Abertawe"
  },
  {
    "example_postcode" : "SA20WE",
    "id" : "W09000020",
    "region_id" : "W10000009",
    "name_en" : "Swansea East",
    "name_cy" : "Dwyrain Abertawe"
  },
  {
    "example_postcode" : "SA111DR",
    "id" : "W09000021",
    "region_id" : "W10000009",
    "name_en" : "Neath",
    "name_cy" : "Castell-nedd"
  },
  {
    "example_postcode" : "SA132DU",
    "id" : "W09000022",
    "region_id" : "W10000009",
    "name_en" : "Aberavon",
    "name_cy" : "Aberafan"
  },
  {
    "example_postcode" : "CF363RH",
    "id" : "W09000023",
    "region_id" : "W10000009",
    "name_en" : "Bridgend",
    "name_cy" : "Pen-y-Bont ar Ogwr"
  },
  {
    "example_postcode" : "CF402YN",
    "id" : "W09000025",
    "region_id" : "W10000007",
    "name_en" : "Rhondda",
    "name_cy" : "Rhondda"
  },
  {
    "example_postcode" : "CF448HA",
    "id" : "W09000026",
    "region_id" : "W10000007",
    "name_en" : "Cynon Valley",
    "name_cy" : "Cwm Cynon"
  },
  {
    "example_postcode" : "CF55EB",
    "id" : "W09000029",
    "region_id" : "W10000007",
    "name_en" : "Cardiff West",
    "name_cy" : "Gorllewin Caerdydd"
  },
  {
    "example_postcode" : "CF26AS",
    "id" : "W09000031",
    "region_id" : "W10000007",
    "name_en" : "Cardiff Central",
    "name_cy" : "Canol Caerdydd"
  },
  {
    "example_postcode" : "NP65YE",
    "id" : "W09000034",
    "region_id" : "W10000008",
    "name_en" : "Monmouth",
    "name_cy" : "Mynwy"
  },
  {
    "example_postcode" : "CF838SA",
    "id" : "W09000035",
    "region_id" : "W10000008",
    "name_en" : "Caerphilly",
    "name_cy" : "Caerffili"
  },
  {
    "example_postcode" : "NP16FY",
    "id" : "W09000036",
    "region_id" : "W10000008",
    "name_en" : "Islwyn",
    "name_cy" : "Islwyn"
  },
  {
    "example_postcode" : "NP45PF",
    "id" : "W09000037",
    "region_id" : "W10000008",
    "name_en" : "Torfaen",
    "name_cy" : "Torfaen"
  },
  {
    "example_postcode" : "NP132HB",
    "id" : "W09000038",
    "region_id" : "W10000008",
    "name_en" : "Blaenau Gwent",
    "name_cy" : "Blaenau Gwent"
  },
  {
    "example_postcode" : "NP95PP",
    "id" : "W09000039",
    "region_id" : "W10000008",
    "name_en" : "Newport West",
    "name_cy" : "Gorllewin Casnewydd"
  },
  {
    "example_postcode" : "NP98LP",
    "id" : "W09000040",
    "region_id" : "W10000008",
    "name_en" : "Newport East",
    "name_cy" : "Dwyrain Casnewydd"
  },
  {
    "example_postcode" : "LD39LF",
    "id" : "W09000041",
    "region_id" : "W10000006",
    "name_en" : "Brecon and Radnorshire",
    "name_cy" : "Brycheiniog a Sir Faesyfed"
  },
  {
    "example_postcode" : "CF46NF",
    "id" : "W09000042",
    "region_id" : "W10000007",
    "name_en" : "Cardiff North",
    "name_cy" : "Gogledd Caerdydd"
  },
  {
    "example_postcode" : "CF119WE",
    "id" : "W09000043",
    "region_id" : "W10000007",
    "name_en" : "Cardiff South and Penarth",
    "name_cy" : "De Caerdydd a Phenarth"
  },
  {
    "example_postcode" : "CF478YN",
    "id" : "W09000044",
    "region_id" : "W10000008",
    "name_en" : "Merthyr Tydfil and Rhymney",
    "name_cy" : "Merthyr Tudful a Rhymni"
  },
  {
    "example_postcode" : "CF729LJ",
    "id" : "W09000045",
    "region_id" : "W10000009",
    "name_en" : "Ogmore",
    "name_cy" : "Ogwr"
  },
  {
    "example_postcode" : "CF157QE",
    "id" : "W09000046",
    "region_id" : "W10000007",
    "name_en" : "Pontypridd",
    "name_cy" : "Pontypridd"
  },
  {
    "example_postcode" : "CF69AH",
    "id" : "W09000047",
    "region_id" : "W10000007",
    "name_en" : "Vale of Glamorgan",
    "name_cy" : "Bro Morgannwg"
  }
]
